[{"OBJECT_NAME":"JINJUSAT-1B","OBJECT_ID":"2025-052A","EPOCH":"2026-03-09T15:55:38.242848","MEAN_MOTION":15.30194857,"ECCENTRICITY":0.00055504,"INCLINATION":97.4113,"RA_OF_ASC_NODE":325.4613,"ARG_OF_PERICENTER":82.193,"MEAN_ANOMALY":277.9941,"EPHEMERIS_TYPE":0,"CLASSIFICATION_TYPE":"U","NORAD_CAT_ID":63210,"ELEMENT_SET_NO":999,"REV_AT_EPOCH":5486,"BSTAR":0.00068430401,"MEAN_MOTION_DOT":0.00019955,"MEAN_MOTION_DDOT":0},{"OBJECT_NAME":"STARLINK-34878","OBJECT_ID":"2025-189M","EPOCH":"2026-03-09T15:42:54.021888","MEAN_MOTION":15.30192129,"ECCENTRICITY":0.00010722,"INCLINATION":53.1597,"RA_OF_ASC_NODE":206.7521,"ARG_OF_PERICENTER":50.6921,"MEAN_ANOMALY":309.4175,"EPHEMERIS_TYPE":0,"CLASSIFICATION_TYPE":"U","NORAD_CAT_ID":65334,"ELEMENT_SET_NO":999,"REV_AT_EPOCH":3110,"BSTAR":0.00066262464,"MEAN_MOTION_DOT":0.00019312,"MEAN_MOTION_DDOT":0}]
